{
  "norad_id": 37951,
  "name": "LUCH-5A",
  "history": [
    {
      "epoch": "2026-03-28T19:00:03.552192Z",
      "apogee_km": 35800.77688043779,
      "perigee_km": 35773.51702436256,
      "latitude_deg": -3.3377998405100335,
      "longitude_deg": 166.7061961308779,
      "height_km": 35782.19500701682,
      "semi_major_axis_km": 42165.283952400176,
      "eccentricity": 0.00032325,
      "inclination_deg": 8.551,
      "raan_deg": 74.9754,
      "arg_perigee_deg": 271.7532,
      "mean_anomaly_deg": 291.4452,
      "mean_motion_rev_day": 1.00269816
    },
    {
      "epoch": "2026-03-29T09:15:34.548192Z",
      "apogee_km": 35800.77990990974,
      "perigee_km": 35773.448394112995,
      "latitude_deg": 7.207068497947228,
      "longitude_deg": 166.6925835283406,
      "height_km": 35797.213639574475,
      "semi_major_axis_km": 42165.25115201137,
      "eccentricity": 0.0003241,
      "inclination_deg": 8.5525,
      "raan_deg": 74.9667,
      "arg_perigee_deg": 272.8687,
      "mean_anomaly_deg": 144.7986,
      "mean_motion_rev_day": 1.00269933
    },
    {
      "epoch": "2026-03-30T06:56:20.624640Z",
      "apogee_km": 35800.67940417221,
      "perigee_km": 35773.4406868808,
      "latitude_deg": 3.4225927443829587,
      "longitude_deg": 166.7535878108851,
      "height_km": 35790.58579306738,
      "semi_major_axis_km": 42165.197045526504,
      "eccentricity": 0.000323,
      "inclination_deg": 8.5549,
      "raan_deg": 74.9536,
      "arg_perigee_deg": 274.9422,
      "mean_anomaly_deg": 108.8147,
      "mean_motion_rev_day": 1.00270126
    },
    {
      "epoch": "2026-03-30T18:54:57.100896Z",
      "apogee_km": 35800.562680675415,
      "perigee_km": 35773.49517406001,
      "latitude_deg": -3.4342240446228813,
      "longitude_deg": 166.6846135268907,
      "height_km": 35782.92324223642,
      "semi_major_axis_km": 42165.165927367714,
      "eccentricity": 0.00032097,
      "inclination_deg": 8.5561,
      "raan_deg": 74.9463,
      "arg_perigee_deg": 276.0084,
      "mean_anomaly_deg": 287.8971,
      "mean_motion_rev_day": 1.00270237
    }
  ]
}